{"type":"FeatureCollection","features":[{"type":"Feature","properties":{"color":"#333333","weight":"9","medida":"591644.71m²"},"geometry":{"type":"Polygon","coordinates":[[[-77.018288,-12.119416],[-77.018424,-12.112946],[-77.025942,-12.113476],[-77.026188,-12.117284],[-77.025843,-12.119175],[-77.025227,-12.119139],[-77.024882,-12.119296],[-77.024118,-12.11985],[-77.018288,-12.119416]]]}},{"type":"Feature","properties":{"color":"#333333","weight":"9","medida":"535669.91m²"},"geometry":{"type":"Polygon","coordinates":[[[-77.018269,-12.119439],[-77.018238,-12.120562],[-77.017286,-12.120544],[-77.017294,-12.119439],[-77.013808,-12.119379],[-77.013808,-12.118815],[-77.013258,-12.11879],[-77.013258,-12.11787],[-77.013193,-12.117692],[-77.010178,-12.115685],[-77.012163,-12.112509],[-77.018389,-12.112948],[-77.018269,-12.119439]]]}},{"type":"Feature","properties":{"color":"#333333","weight":"9","medida":"1.74km²"},"geometry":{"type":"Polygon","coordinates":[[[-77.012073,-12.112557],[-77.002746,-12.126454],[-77.002365,-12.125563],[-77.000934,-12.12434],[-76.999002,-12.12159],[-76.998782,-12.121423],[-76.998331,-12.121433],[-76.998281,-12.120024],[-76.99758,-12.119887],[-76.994277,-12.112776],[-76.993455,-12.111669],[-76.993611,-12.111253],[-77.012073,-12.112557]]]}},{"type":"Feature","properties":{"color":"#333333","weight":"9","medida":"343056.15m²"},"geometry":{"type":"Polygon","coordinates":[[[-77.01212,-12.112464],[-77.009624,-12.112229],[-77.009788,-12.110256],[-77.009966,-12.110192],[-77.01047,-12.107307],[-77.014673,-12.108001],[-77.015094,-12.107617],[-77.015449,-12.107088],[-77.015925,-12.106366],[-77.016579,-12.105562],[-77.016523,-12.104485],[-77.016383,-12.104019],[-77.016149,-12.103526],[-77.016588,-12.103261],[-77.016467,-12.102284],[-77.018774,-12.101955],[-77.018622,-12.104315],[-77.01212,-12.112464]]]}},{"type":"Feature","properties":{"color":"#333333","weight":"9","medida":"308517.20m²"},"geometry":{"type":"Polygon","coordinates":[[[-77.018397,-12.112839],[-77.012284,-12.112429],[-77.018643,-12.104524],[-77.018397,-12.112839]]]}},{"type":"Feature","properties":{"color":"#333333","weight":"9","medida":"556323.51m²"},"geometry":{"type":"Polygon","coordinates":[[[-77.025877,-12.113381],[-77.026383,-12.108573],[-77.018692,-12.105693],[-77.018458,-12.112875],[-77.025877,-12.113381]]]}},{"type":"Feature","properties":{"color":"#333333","weight":"9","medida":"476081.71m²"},"geometry":{"type":"Polygon","coordinates":[[[-77.026408,-12.108489],[-77.027082,-12.1065],[-77.027333,-12.102845],[-77.018972,-12.10198],[-77.018734,-12.105622],[-77.026408,-12.108489]]]}}]}