{"type":"FeatureCollection","features":[{"type":"Feature","properties":{"color":"#333333","weight":"3","medida":"95811.53m²"},"geometry":{"type":"Polygon","coordinates":[[[-77.018746,-12.101972],[-77.016419,-12.102292],[-77.016523,-12.103157],[-77.016414,-12.103357],[-77.016101,-12.103566],[-77.016488,-12.10455],[-77.016532,-12.105125],[-77.016576,-12.105355],[-77.016541,-12.10553],[-77.016406,-12.105777],[-77.016872,-12.106476],[-77.01864,-12.104568],[-77.018746,-12.101972]]]}},{"type":"Feature","properties":{"color":"#333333","weight":"3","medida":"244215.95m²"},"geometry":{"type":"Polygon","coordinates":[[[-77.016403,-12.105788],[-77.016856,-12.106475],[-77.015257,-12.108333],[-77.01353,-12.110575],[-77.012284,-12.112416],[-77.009648,-12.11222],[-77.009798,-12.110266],[-77.009994,-12.110092],[-77.010514,-12.107329],[-77.014702,-12.107984],[-77.01538,-12.107204],[-77.015679,-12.106701],[-77.016403,-12.105788]]]}}]}