{"type":"FeatureCollection","features":[{"type":"Feature","properties":{"color":"#333333","weight":"3","medida":"361752.26m²"},"geometry":{"type":"Polygon","coordinates":[[[-77.011965,-12.112582],[-77.007216,-12.112215],[-77.007096,-12.113842],[-77.006961,-12.115392],[-77.006819,-12.116167],[-77.006621,-12.116506],[-77.006529,-12.116707],[-77.006154,-12.117101],[-77.005935,-12.117344],[-77.005736,-12.11753],[-77.005595,-12.117787],[-77.005467,-12.117987],[-77.005333,-12.118209],[-77.003634,-12.120728],[-77.005758,-12.122105],[-77.011965,-12.112582]]]}},{"type":"Feature","properties":{"color":"#333333","weight":"3","medida":"719892.60m²"},"geometry":{"type":"Polygon","coordinates":[[[-77.007209,-12.112215],[-77.000197,-12.111757],[-76.99914,-12.115827],[-76.998376,-12.118817],[-76.998279,-12.120009],[-77.003631,-12.120721],[-77.005751,-12.117489],[-77.006522,-12.116693],[-77.006791,-12.116139],[-77.006947,-12.115385],[-77.007209,-12.112215]]]}},{"type":"Feature","properties":{"color":"#333333","weight":"3","medida":"355126.34m²"},"geometry":{"type":"Polygon","coordinates":[[[-77.000168,-12.111763],[-76.993693,-12.111217],[-76.9934,-12.111773],[-76.993807,-12.112043],[-76.994099,-12.112552],[-76.995595,-12.115494],[-76.996847,-12.117656],[-76.997596,-12.119882],[-76.998264,-12.119987],[-76.998366,-12.118807],[-76.998612,-12.117858],[-76.999677,-12.113689],[-77.000168,-12.111763]]]}},{"type":"Feature","properties":{"color":"#333333","weight":"3","medida":"290437.41m²"},"geometry":{"type":"Polygon","coordinates":[[[-77.005743,-12.122109],[-77.002814,-12.126405],[-77.002366,-12.125826],[-77.002095,-12.125287],[-77.001561,-12.124865],[-77.000836,-12.12423],[-76.999475,-12.122217],[-76.998996,-12.121601],[-76.998898,-12.12148],[-76.998454,-12.12142],[-76.998373,-12.120573],[-76.998405,-12.119997],[-77.003622,-12.120733],[-77.005743,-12.122109]]]}}]}